OUFTI-1                 
1 41458U 16025C   22341.77536879  .00015148  00000+0  56729-3 0  9990
2 41458  98.1902 162.2735 0129472  34.2951 326.6556 15.19797418363858
E-ST@R-II               
1 41459U 16025D   22341.60995361  .00012234  00000+0  47581-3 0  9997
2 41459  98.1917 160.2870 0133627  40.3583 320.7515 15.18202333363721
AAUSAT 4                
1 41460U 16025E   22341.50040456  .00024535  00000+0  77207-3 0  9999
2 41460  98.1778 168.2623 0107664   9.9156  51.6909 15.27374525364272
AIST-2D (RS-48)         
1 41465U 16026B   22342.06115034  .00019899  00000+0  39946-3 0  9997
2 41465  97.0275 212.8180 0006954 209.8664 288.3868 15.46679163370318
NUSAT-1 (FRESCO)        
1 41557U 16033B   22341.95698402  .00020578  00000+0  51432-3 0  9999
2 41557  97.3902  80.5385 0010780 113.5092 336.5410 15.40108116364035
NUSAT-2 (BATATA)        
1 41558U 16033C   22342.10348557  .00019605  00000+0  46132-3 0  9991
2 41558  97.4148  87.4040 0010422 102.9838  21.3934 15.41949997364352
CARTOSAT-2C             
1 41599U 16040A   22341.77569823  .00003775  00000+0  18183-3 0  9993
2 41599  97.4660  39.6424 0012552 299.8774 199.4705 15.19298398358243
SATHYABAMASAT           
1 41600U 16040B   22341.39671477  .00024808  00000+0  61882-3 0  9997
2 41600  97.1964  30.2207 0008171 209.3459 150.7329 15.40153925359449
LAPAN-A3                
1 41603U 16040E   22342.19066455  .00001707  00000+0  79401-4 0  9993
2 41603  97.1880  11.5175 0011233 270.8839 161.4399 15.21200536358448
BIROS                   
1 41604U 16040F   22341.68999470  .00005455  00000+0  21578-3 0  9994
2 41604  97.1898  19.5253 0009755 235.3232 124.7088 15.25821220358868
SWAYAM                  
1 41607U 16040J   22341.09033513  .00022427  00000+0  59156-3 0  9990
2 41607  97.1920  27.8039 0008421 212.0545 148.0189 15.38459219359253
BEESAT-4                
1 41619U 16040W   22341.87214964  .00031995  00000+0  88163-3 0  9990
2 41619  97.1936  28.2482 0007143 202.5189 157.5744 15.37044880347306
3CAT-2                  
1 41732U 16051B   22341.70631428  .00016978  00000+0  45217-3 0  9995
2 41732  97.3869 265.1641 0011994  37.8188  29.3021 15.38184067351914
PRATHAM                 
1 41783U 16059A   22341.82258867  .00000652  00000+0  13367-3 0  9997
2 41783  97.8932  16.2611 0032962 348.4378  11.6064 14.63527377330985
ALSAT 1N                
1 41789U 16059G   22341.85926545  .00000565  00000+0  11383-3 0  9990
2 41789  97.8955  21.2699 0027543 330.5735  29.3907 14.64896836331259
LISHUI 1-01             
1 41845U 16066E   22341.85458787  .00168870  00000+0  12148-1 0  9991
2 41845  98.7187 128.5326 0167909 238.0018 120.4757 14.92839213322505
CARTOSAT-2D             
1 41948U 17008A   22341.65053023  .00003797  00000+0  18299-3 0  9995
2 41948  97.4441  39.0740 0007147  84.2492 275.9554 15.19311616322095
NAYIF-1 (EO-88)         
1 42017U 17008BX  22341.15497481  .00025191  00000+0  59547-3 0  9991
2 42017  97.2486  45.2862 0003767   5.3938 354.7349 15.41809364323611
ZHUHAI-1 02 (CAS-4B)    
1 42759U 17034B   22341.80116709  .00004393  00000+0  25380-3 0  9995
2 42759  43.0163  96.2686 0011472 303.3477 192.0328 15.13410338302600
ZHUHAI-1 01 (CAS-4A)    
1 42761U 17034D   22341.82819188  .00004613  00000+0  26514-3 0  9996
2 42761  43.0166  94.7786 0011798 306.2514 195.8786 15.13502234302612
UCLSAT                  
1 42765U 17036A   22341.82487906  .00023700  00000+0  70616-3 0  9991
2 42765  97.1752  19.3468 0010186  67.3946 292.8374 15.34626479304390
NIUSAT                  
1 42766U 17036B   22341.82715677  .00015558  00000+0  54056-3 0  9993
2 42766  97.1826  13.6186 0014408  72.7939 287.4878 15.29730844303271
CARTOSAT-2E             
1 42767U 17036C   22342.07974652  .00004021  00000+0  19383-3 0  9999
2 42767  97.4333  40.1031 0008424 130.0242 317.7647 15.19251417302721
LITUANICASAT-2          
1 42768U 17036D   22341.70895121  .00078974  00000+0  14991-2 0  9999
2 42768  97.1813  24.3197 0008956  46.7740 313.4257 15.47976998303927
AALTO-1                 
1 42775U 17036L   22341.32715885  .00007686  00000+0  28076-3 0  9995
2 42775  97.1780  12.6931 0013559  74.9114 285.3625 15.28285147303156
URSA MAIOR              
1 42776U 17036M   22341.82007784  .00013592  00000+0  48117-3 0  9994
2 42776  97.1792  14.1003 0013157  71.8000 288.4671 15.29164721303274
COMPASS 2               
1 42777U 17036N   22341.42178226  .00026927  00000+0  66834-3 0  9993
2 42777  97.1818  22.1800 0009635  55.4915 304.7240 15.40275302303698
MAX VALIER SAT          
1 42778U 17036P   22341.55726361  .00012075  00000+0  41292-3 0  9997
2 42778  97.1844  16.8447 0011769  72.9025 287.3505 15.30338867303349
PEGASUS                 
1 42784U 17036V   22342.06304856  .00021932  00000+0  68222-3 0  9996
2 42784  97.1778  18.6218 0010937  70.6647 289.5778 15.33267670303576
NUDTSAT                 
1 42787U 17036Y   22342.23904242  .00033384  00000+0  77619-3 0  9997
2 42787  97.1790  24.5780 0008558  53.9935 306.2144 15.42219839303795
SUCHAI                  
1 42788U 17036Z   22341.08819712  .00017976  00000+0  50989-3 0  9997
2 42788  97.1779  19.8864 0009939  67.6889 292.5408 15.36231755303634
SKCUBE                  
1 42789U 17036AA  22341.84915076  .00024264  00000+0  71690-3 0  9992
2 42789  97.1777  19.8374 0010122  66.4393 293.7913 15.34887794303623
VZLUSAT-1               
1 42790U 17036AB  22341.36394127  .00029165  00000+0  68843-3 0  9990
2 42790  97.1791  23.6291 0008305  58.4620 301.7438 15.41793544303805
ROBUSTA 1B              
1 42792U 17036AD  22342.11780587  .00028645  00000+0  82028-3 0  9998
2 42792  97.1772  20.8338 0009576  65.4904 294.7337 15.35844413303726
D-SAT                   
1 42794U 17036AF  22341.72679788  .00002475  00000+0  20916-3 0  9997
2 42794  97.4555 338.1323 0119859 224.2156 134.9439 14.93548038297333
NORSAT 2                
1 42828U 17042D   22341.85759447  .00004248  00000+0  40633-3 0  9995
2 42828  97.4072 188.4322 0014612 137.9982 222.2362 14.93634639294042
TECHNOSAT               
1 42829U 17042E   22342.04428001  .00002159  00000+0  21575-3 0  9990
2 42829  97.3994 185.9177 0014673 141.2714 218.9561 14.92354257293971
2017-042F               
1 42830U 17042F   22341.59483619  .00009048  00000+0  79215-3 0  9995
2 42830  97.4114 191.1121 0013814 128.9838 231.2617 14.96844677294167
FLYING LAPTOP           
1 42831U 17042G   22342.16930841  .00000897  00000+0  93023-4 0  9991
2 42831  97.4009 186.3764 0014468 141.2692 218.9573 14.92172406293995
CORVUS BC2              
1 42846U 17042X   22341.85278478  .00002267  00000+0  22061-3 0  9999
2 42846  97.3998 189.1994 0010369 129.1069 231.1075 14.93422869294157
CORVUS BC1              
1 42847U 17042Y   22341.85545508  .00002277  00000+0  22110-3 0  9997
2 42847  97.3999 189.5344 0010096 128.0044 232.2090 14.93500373294167
CZ-4C R/B               
1 43012U 17072C   22341.74595050  .00000411  00000+0  94199-4 0  9995
2 43012  98.6766  25.1375 0127673 147.0018 213.9230 14.56466525269083
RADFXSAT (FOX-1B)       
1 43017U 17073E   22341.95789257  .00008928  00000+0  65689-3 0  9990
2 43017  97.6536 228.9790 0243558 339.3835  19.7679 14.82824837272817
EAGLESAT 1              
1 43018U 17073F   22341.52437126  .00012131  00000+0  84770-3 0  9992
2 43018  97.6584 231.0870 0232952 332.5900  26.3180 14.86042774272771
INS-1C                  
1 43116U 18004F   22341.46884830  .00016876  00000+0  50004-3 0  9990
2 43116  97.3620  56.6159 0008511  95.7979 264.4235 15.34891246272827
FLOCK 3P'-3             
1 43119U 18004J   22341.46261162  .00027881  00000+0  91812-3 0  9990
2 43119  97.3599  53.6871 0008903 112.2047 248.0140 15.31415028272649
FLOCK 3P'-2             
1 43120U 18004K   22341.98046973  .00030170  00000+0  10234-2 0  9993
2 43120  97.3604  53.7020 0009582 112.0720 248.1539 15.30433691272687
FLOCK 3P'-1             
1 43121U 18004L   22341.69718274  .00051218  00000+0  96594-3 0  9992
2 43121  97.3671  61.8700 0006160  81.8037 278.3912 15.48305548273128
FLOCK 3P'-4             
1 43122U 18004M   22341.44058968  .00019576  00000+0  66067-3 0  9996
2 43122  97.3613  53.3619 0008975 116.1939 244.0226 15.30692635272606
MICROMAS-2A             
1 43131U 18004W   22341.63692442  .00052900  00000+0  10292-2 0  9994
2 43131  97.3617  62.3080 0005646  88.2213 271.9684 15.47401716273242
PICSAT                  
1 43132U 18004X   22341.64429169  .00024087  00000+0  66762-3 0  9999
2 43132  97.3577  57.5112 0008255  98.7836 261.4343 15.36913050272956
CNUSAIL-1               
1 43133U 18004Y   22341.46550670  .00013067  00000+0  42111-3 0  9990
2 43133  97.3529  54.2719 0009126 106.8268 253.3976 15.32268794272753
2018-004Z               
1 43134U 18004Z   22341.75326680  .00023144  00000+0  68070-3 0  9994
2 43134  97.3561  56.4570 0008383 102.4557 257.7625 15.35060947272905
FOX-1D (AO-92)          
1 43137U 18004AC  22341.15626033  .00013934  00000+0  43266-3 0  9992
2 43137  97.3539  55.0199 0008410 106.1518 254.0650 15.33450041272773
STEP CUBE LAB           
1 43138U 18004AD  22341.47860756  .00032442  00000+0  72911-3 0  9994
2 43138  97.3621  60.8186 0006501  96.9076 263.2912 15.43259876273138
XIAOXIANG-2             
1 43155U 18008A   22341.97068804  .00008887  00000+0  43857-3 0  9999
2 43155  97.3316  34.8524 0013602 259.7599 200.7748 15.18044868269575
ZHOU ENLAI              
1 43156U 18008B   22341.94365830  .00009820  00000+0  48558-3 0  9997
2 43156  97.3358  34.7659 0011054 261.6887 222.8542 15.17974196269494
QUANTUTONG 1            
1 43158U 18008D   22341.93348671  .00008038  00000+0  41519-3 0  9992
2 43158  97.3324  32.3470 0010596 263.7762 223.2496 15.16507209269375
S-NET D                 
1 43186U 18014G   22341.94242558  .00003593  00000+0  30370-3 0  9992
2 43186  97.6465 244.2937 0012215  78.8186 281.4409 14.98638478264896
